{
  "type": "FeatureCollection",
  "features": [
    {
      "type": "Feature",
      "properties": {
        "norad_id": 58654,
        "name": "BEIDOU-3 M28 (C50)",
        "group": "beidou",
        "lat": 49.240425600355344,
        "lon": 121.35316605453052,
        "alt_km": 21528.072438096013,
        "timestamp": "2025-12-08T05:48:09.300198+00:00",
        "meta_object_name": "BEIDOU-3 M28 (C50)",
        "meta_object_id": "2023-207A",
        "meta_epoch": "2025-12-06T12:45:22.310208",
        "meta_mean_motion": 1.86229594,
        "meta_eccentricity": 0.00021908,
        "meta_inclination": 55.5792,
        "meta_ra_of_asc_node": 68.8117,
        "meta_arg_of_pericenter": 267.5881,
        "meta_mean_anomaly": 92.402,
        "meta_ephemeris_type": 0,
        "meta_classification_type": "U",
        "meta_norad_cat_id": 58654,
        "meta_element_set_no": 999,
        "meta_rev_at_epoch": 1325,
        "meta_bstar": 0,
        "meta_mean_motion_dot": -4.7e-07,
        "meta_mean_motion_ddot": 0,
        "tle_line1": "1 58654U 23207A   25340.53150822 -.00000047  00000+0  00000+0 0  9992",
        "tle_line2": "2 58654  55.5792  68.8117 0002190 267.5881  92.4020  1.86229594 13257"
      },
      "geometry": {
        "type": "Point",
        "coordinates": [
          121.35316605453052,
          49.240425600355344
        ]
      }
    },
    {
      "type": "Feature",
      "properties": {
        "norad_id": 58655,
        "name": "BEIDOU-3 M26 (C48)",
        "group": "beidou",
        "lat": -18.21141210802243,
        "lon": -98.23349186144358,
        "alt_km": 21524.242795265352,
        "timestamp": "2025-12-08T05:48:09.300209+00:00",
        "meta_object_name": "BEIDOU-3 M26 (C48)",
        "meta_object_id": "2023-207B",
        "meta_epoch": "2025-12-07T09:40:28.837056",
        "meta_mean_motion": 1.86231105,
        "meta_eccentricity": 0.0003615,
        "meta_inclination": 55.5821,
        "meta_ra_of_asc_node": 68.7685,
        "meta_arg_of_pericenter": 253.2983,
        "meta_mean_anomaly": 106.6805,
        "meta_ephemeris_type": 0,
        "meta_classification_type": "U",
        "meta_norad_cat_id": 58655,
        "meta_element_set_no": 999,
        "meta_rev_at_epoch": 1325,
        "meta_bstar": 0,
        "meta_mean_motion_dot": -4.6e-07,
        "meta_mean_motion_ddot": 0,
        "tle_line1": "1 58655U 23207B   25341.40311154 -.00000046  00000+0  00000+0 0  9996",
        "tle_line2": "2 58655  55.5821  68.7685 0003615 253.2983 106.6805  1.86231105 13258"
      },
      "geometry": {
        "type": "Point",
        "coordinates": [
          -98.23349186144358,
          -18.21141210802243
        ]
      }
    },
    {
      "type": "Feature",
      "properties": {
        "norad_id": 61186,
        "name": "BEIDOU-3 M25 (C47)",
        "group": "beidou",
        "lat": -32.18851401210116,
        "lon": -77.66849268993782,
        "alt_km": 21518.25360793257,
        "timestamp": "2025-12-08T05:48:09.300220+00:00",
        "meta_object_name": "BEIDOU-3 M25 (C47)",
        "meta_object_id": "2024-168B",
        "meta_epoch": "2025-12-07T11:49:46.567776",
        "meta_mean_motion": 1.86229795,
        "meta_eccentricity": 0.000545,
        "meta_inclination": 54.6466,
        "meta_ra_of_asc_node": 308.9013,
        "meta_arg_of_pericenter": 295.4181,
        "meta_mean_anomaly": 241.6791,
        "meta_ephemeris_type": 0,
        "meta_classification_type": "U",
        "meta_norad_cat_id": 61186,
        "meta_element_set_no": 999,
        "meta_rev_at_epoch": 821,
        "meta_bstar": 0,
        "meta_mean_motion_dot": -7.2e-07,
        "meta_mean_motion_ddot": 0,
        "tle_line1": "1 61186U 24168B   25341.49290009 -.00000072  00000+0  00000+0 0  9999",
        "tle_line2": "2 61186  54.6466 308.9013 0005450 295.4181 241.6791  1.86229795  8213"
      },
      "geometry": {
        "type": "Point",
        "coordinates": [
          -77.66849268993782,
          -32.18851401210116
        ]
      }
    },
    {
      "type": "Feature",
      "properties": {
        "norad_id": 61187,
        "name": "BEIDOU-3 M27 (C49)",
        "group": "beidou",
        "lat": 54.42798974232008,
        "lon": 46.03373172908024,
        "alt_km": 21525.206135055196,
        "timestamp": "2025-12-08T05:48:09.300231+00:00",
        "meta_object_name": "BEIDOU-3 M27 (C49)",
        "meta_object_id": "2024-168C",
        "meta_epoch": "2025-12-07T02:45:45.916992",
        "meta_mean_motion": 1.86229917,
        "meta_eccentricity": 0.00022869,
        "meta_inclination": 54.6424,
        "meta_ra_of_asc_node": 308.8981,
        "meta_arg_of_pericenter": 332.2687,
        "meta_mean_anomaly": 86.4832,
        "meta_ephemeris_type": 0,
        "meta_classification_type": "U",
        "meta_norad_cat_id": 61187,
        "meta_element_set_no": 999,
        "meta_rev_at_epoch": 568,
        "meta_bstar": 0,
        "meta_mean_motion_dot": -7.1e-07,
        "meta_mean_motion_ddot": 0,
        "tle_line1": "1 61187U 24168C   25341.11511478 -.00000071  00000+0  00000+0 0  9994",
        "tle_line2": "2 61187  54.6424 308.8981 0002286 332.2687  86.4832  1.86229917  5681"
      },
      "geometry": {
        "type": "Point",
        "coordinates": [
          46.03373172908024,
          54.42798974232008
        ]
      }
    }
  ]
}